NORAD_CAT_ID,OBJECT_NAME,OBJECT_TYPE,EPOCH,MEAN_MOTION,ECCENTRICITY,INCLINATION,RA_OF_ASC_NODE,ARG_OF_PERICENTER,MEAN_ANOMALY,BSTAR,MEAN_MOTION_DOT,MEAN_MOTION_DDOT,TLE_LINE0,TLE_LINE1,TLE_LINE2,SEMIMAJOR_AXIS,PERIOD,APOGEE,PERIGEE,DECAYED
53724.0,STARLINK-4663,PAYLOAD,2022-10-28 22:00:01,15.48624963,0.0001468,53.2172,7.872999999999997,31.3278,270.1072,-0.022977,-0.0114187999999999,0.0,0 STARLINK-4663,1 53724U 22107AA  22301.91668981 -.01141880  00000-0 -22977-1 0  9992,2 53724  53.2172   7.8730 0001468  31.3278 270.1072 15.48624963  1302,6798.885,92.986,421.74800000000016,419.752,0.0
53724.0,STARLINK-4663,PAYLOAD,2022-10-29 08:00:01,15.47602876,0.0006591,53.2174,5.8871,272.5977,192.2521,-0.023642,-0.0111983,0.0,0 STARLINK-4663,1 53724U 22107AA  22302.33334491 -.01119830  00000-0 -23642-1 0  9995,2 53724  53.2174   5.8871 0006591 272.5977 192.2521 15.47602876  8639,6801.878000000002,93.047,428.226,419.26,0.0
53724.0,STARLINK-4663,PAYLOAD,2022-10-29 12:00:00,15.47251278,0.0001353,53.2172,5.0948,26.4768,287.3062,-0.025647,-0.01208098,0.0,0 STARLINK-4663,1 53724U 22107AA  22302.50001157 -.01208098  00000-0 -25647-1 0  9996,2 53724  53.2172   5.0948 0001353  26.4768 287.3062 15.47251278  1308,6802.908,93.068,425.694,423.853,0.0
53724.0,STARLINK-4663,PAYLOAD,2022-10-29 22:00:01,15.46182685,0.0001638,53.2174,3.1113,41.93600000000001,73.2771,-0.024988,-0.0114035,0.0,0 STARLINK-4663,1 53724U 22107AA  22302.91668981 -.01140350  00000-0 -24988-1 0  9998,2 53724  53.2174   3.1113 0001638  41.9360  73.2771 15.46182685  1302,6806.042,93.133,429.022,426.792,0.0
53724.0,STARLINK-4663,PAYLOAD,2022-10-30 00:00:00,15.45979656,0.0001545,53.2175,2.7148,47.944,171.2885,-0.025154,-0.01139895,0.0,0 STARLINK-4663,1 53724U 22107AA  22303.00001157 -.01139895  00000-0 -25154-1 0  9993,2 53724  53.2175   2.7148 0001545  47.9440 171.2885 15.45979656  8738,6806.638000000001,93.145,429.555,427.451,0.0
53724.0,STARLINK-4663,PAYLOAD,2022-10-30 14:00:01,15.44561268,0.0001526,53.2173,359.9486,46.6555,179.4508,-0.0266089999999999,-0.01147617,0.0,0 STARLINK-4663,1 53724U 22107AA  22303.58334491 -.01147617  00000-0 -26609-1 0  9993,2 53724  53.2173 359.9486 0001526  46.6555 179.4508 15.44561268  1303,6810.805,93.23,433.709,431.63,0.0
53724.0,STARLINK-4663,PAYLOAD,2022-10-30 22:00:01,15.43743778,0.0001517,53.2175,358.3672,43.4241,236.764,-0.02725,-0.0114327999999999,0.0,0 STARLINK-4663,1 53724U 22107AA  22303.91668981 -.01143280  00000-0 -27250-1 0  9999,2 53724  53.2175 358.3672 0001517  43.4241 236.7640 15.43743778  1303,6813.209,93.28,436.107,434.04,0.0
53724.0,STARLINK-4663,PAYLOAD,2022-10-31 14:00:01,15.42128007,0.0001404,53.2171,355.2164,40.5375,344.6743,-0.029207,-0.0115862,0.0,0 STARLINK-4663,1 53724U 22107AA  22304.58334491 -.01158620  00000-0 -29207-1 0  9997,2 53724  53.2171 355.2164 0001404  40.5375 344.6743 15.42128007  1306,6817.967,93.377,440.789,438.875,0.0
53724.0,STARLINK-4663,PAYLOAD,2022-10-31 22:00:01,15.41299347,0.0001656,53.2173,353.6408,35.5642,40.801,-0.029456,-0.0113835,0.0,0 STARLINK-4663,1 53724U 22107AA  22304.91668981 -.01138350  00000-0 -29456-1 0  9992,2 53724  53.2173 353.6408 0001656  35.5642  40.8010 15.41299347  9036,6820.41,93.428,443.405,441.146,0.0
53724.0,STARLINK-4663,PAYLOAD,2022-11-01 14:00:01,15.39696257,0.0001619,53.2169,350.5016,41.5496,133.9658,-0.032039,-0.01170655,0.0,0 STARLINK-4663,1 53724U 22107AA  22305.58334491 -.01170655  00000-0 -32039-1 0  9997,2 53724  53.2169 350.5016 0001619  41.5496 133.9658 15.39696257  9136,6825.144,93.525,448.114,445.904,0.0
53724.0,STARLINK-4663,PAYLOAD,2022-11-01 22:00:00,15.38859056,0.0001694,53.2175,348.9317,41.8234,181.8515,-0.031934,-0.01138022,0.0,0 STARLINK-4663,1 53724U 22107AA  22305.91667824 -.01138022  00000-0 -31934-1 0  9998,2 53724  53.2175 348.9317 0001694  41.8234 181.8515 15.38859056  1306,6827.619000000002,93.576,450.641,448.327,0.0
53724.0,STARLINK-4663,PAYLOAD,2022-11-02 14:00:01,15.37231257,0.0001641,53.2173,345.8039,36.2355,280.7988,-0.033644,-0.01136758,0.0,0 STARLINK-4663,1 53724U 22107AA  22306.58334491 -.01136758  00000-0 -33644-1 0  9997,2 53724  53.2173 345.8039 0001641  36.2355 280.7988 15.37231257  1304,6832.438,93.675,455.424,453.182,0.0
53724.0,STARLINK-4663,PAYLOAD,2022-11-02 22:00:00,15.36417709,0.0001551,53.2174,344.2401,36.2099,326.0393,-0.034589,-0.01138029,0.0,0 STARLINK-4663,1 53724U 22107AA  22306.91667824 -.01138029  00000-0 -34589-1 0  9995,2 53724  53.2174 344.2401 0001551  36.2099 326.0393 15.36417709  9338,6834.85,93.725,457.775,455.655,0.0
53724.0,STARLINK-4663,PAYLOAD,2022-11-03 14:00:01,15.34795989,0.0001753,53.2169,341.1241,34.9883,54.75,-0.036677,-0.01144642,0.0,0 STARLINK-4663,1 53724U 22107AA  22307.58334491 -.01144642  00000-0 -36677-1 0  9998,2 53724  53.2169 341.1241 0001753  34.9883  54.7500 15.34795989  1301,6839.6640000000025,93.824,462.728,460.33,0.0
53724.0,STARLINK-4663,PAYLOAD,2022-11-03 22:00:00,15.33975717,0.0001696,53.2174,339.5659,40.6832,91.3397,-0.037347,-0.01136129,0.0,0 STARLINK-4663,1 53724U 22107AA  22307.91667824 -.01136129  00000-0 -37347-1 0  9990,2 53724  53.2174 339.5659 0001696  40.6832  91.3397 15.33975717  1304,6842.102,93.874,465.127,462.806,0.0
53724.0,STARLINK-4663,PAYLOAD,2022-11-04 14:00:01,15.32348081,0.0001742,53.2173,336.4612,42.8933,170.7546,-0.039283,-0.01134942,0.0,0 STARLINK-4663,1 53724U 22107AA  22308.58334491 -.01134942  00000-0 -39283-1 0  9997,2 53724  53.2173 336.4612 0001742  42.8933 170.7546 15.32348081  9590,6846.946,93.973,470.004,467.61800000000005,0.0
53724.0,STARLINK-4663,PAYLOAD,2022-11-04 22:00:01,15.315876500000002,0.000443,53.2173,334.9091,275.9896,337.0442,-0.043045,-0.01207751,0.0,0 STARLINK-4663,1 53724U 22107AA  22308.91668981 -.01207751  00000-0 -43045-1 0  9998,2 53724  53.2173 334.9091 0004430 275.9896 337.0442 15.31587650  9643,6849.212,94.02,474.111,468.043,0.0
53724.0,STARLINK-4663,PAYLOAD,2022-11-05 14:00:01,15.29917669,0.0001541999999999,53.2169,331.8157,40.337,288.4753,-0.043007,-0.01149871,0.0,0 STARLINK-4663,1 53724U 22107AA  22309.58335648 -.01149871  00000-0 -43007-1 0  9999,2 53724  53.2169 331.8157 0001542  40.3370 288.4753 15.29917669  9748,6854.195,94.123,477.117,475.003,0.0
53724.0,STARLINK-4663,PAYLOAD,2022-11-05 22:00:01,15.29100256,0.0001545,53.2171,330.2695,36.655,328.5727,-0.043898,-0.01144775,0.0,0 STARLINK-4663,1 53724U 22107AA  22309.91668981 -.01144775  00000-0 -43898-1 0  9991,2 53724  53.2171 330.2695 0001545  36.6550 328.5727 15.29100256  1309,6856.638000000001,94.173,479.562,477.443,0.0
53724.0,STARLINK-4663,PAYLOAD,2022-11-06 14:00:01,15.274892,0.0001757,53.2165,327.1876,37.4178,37.6284,-0.047029,-0.01180945,0.0,0 STARLINK-4663,1 53724U 22107AA  22310.58334491 -.01180945  00000-0 -47029-1 0  9991,2 53724  53.2165 327.1876 0001757  37.4178  37.6284 15.27489200  9905,6861.458000000001,94.272,484.529,482.117,0.0
53724.0,STARLINK-4663,PAYLOAD,2022-11-07 22:00:00,15.24211113,0.0001738,53.2173,321.0416,44.9205,158.1893,-0.050507,-0.0115072,0.0,0 STARLINK-4663,1 53724U 22107AA  22311.91667824 -.01150720  00000-0 -50507-1 0  9991,2 53724  53.2173 321.0416 0001738  44.9205 158.1893 15.24211113  1304,6871.292,94.475,494.352,491.963,0.0
53724.0,STARLINK-4663,PAYLOAD,2022-11-08 00:00:02,15.24031988,0.0001553,53.2165,320.6585,44.6828,255.9596,-0.052197,-0.01180311,0.0,0 STARLINK-4663,1 53724U 22107AA  22312.00002315 -.01180311  00000-0 -52197-1 0  9996,2 53724  53.2165 320.6585 0001553  44.6828 255.9596 15.24031988 10115,6871.831,94.486,494.763,492.629,0.0
53724.0,STARLINK-4663,PAYLOAD,2022-11-08 14:00:01,15.22598522,0.0001735,53.2163,317.9827,43.2329,218.0264,-0.054026,-0.01171257,0.0,0 STARLINK-4663,1 53724U 22107AA  22312.58334491 -.01171257  00000-0 -54026-1 0  9994,2 53724  53.2163 317.9827 0001735  43.2329 218.0264 15.22598522  1307,6876.143,94.575,499.201,496.815,0.0
53724.0,STARLINK-4663,PAYLOAD,2022-11-08 22:00:00,15.21775335,0.0001643,53.2168,316.4537,40.3687,248.5081,-0.054682,-0.01157953,0.0,0 STARLINK-4663,1 53724U 22107AA  22312.91667824 -.01157953  00000-0 -54682-1 0  9995,2 53724  53.2168 316.4537 0001643  40.3687 248.5081 15.21775335  1300,6878.623000000001,94.626,501.61800000000005,499.357,0.0
53724.0,STARLINK-4663,PAYLOAD,2022-11-09 06:00:00,15.20966988,0.0001406999999999,53.2167,314.9293,51.1676,264.3398,-0.056342,-0.01164371,0.0,0 STARLINK-4663,1 53724U 22107AA  22313.25001157 -.01164371  00000-0 -56342-1 0  9991,2 53724  53.2167 314.9293 0001407  51.1676 264.3398 15.20966988 10309,6881.06,94.677,503.893,501.956,0.0
53724.0,STARLINK-4663,PAYLOAD,2022-11-09 14:00:01,15.20162555,0.000174,53.2161,313.4058,34.4437,306.7152,-0.058376,-0.01177198,0.0,0 STARLINK-4663,1 53724U 22107AA  22313.58334491 -.01177198  00000-0 -58376-1 0  9997,2 53724  53.2161 313.4058 0001740  34.4437 306.7152 15.20162555  1302,6883.486999999999,94.727,506.55,504.154,0.0
53724.0,STARLINK-4663,PAYLOAD,2022-11-09 22:00:01,15.19332058,0.0001678,53.2167,311.8828,33.8537,332.0567,-0.058575,-0.01154709,0.0,0 STARLINK-4663,1 53724U 22107AA  22313.91668981 -.01154709  00000-0 -58575-1 0  9992,2 53724  53.2167 311.8828 0001678  33.8537 332.0567 15.19332058  1306,6885.995,94.778,509.016,506.705,0.0
53724.0,STARLINK-4663,PAYLOAD,2022-11-10 06:00:00,15.18549382,0.0001704,53.2167,310.3641,43.6692,345.8626,-0.062333,-0.01197404,0.0,0 STARLINK-4663,1 53724U 22107AA  22314.25001157 -.01197404  00000-0 -62333-1 0  9992,2 53724  53.2167 310.3641 0001704  43.6692 345.8626 15.18549382 10468,6888.361,94.827,511.4,509.052,0.0
53724.0,STARLINK-4663,PAYLOAD,2022-11-10 14:00:01,15.17714684,0.0001896,53.2161,308.8462,30.6199,21.6457,-0.062223,-0.01169143,0.0,0 STARLINK-4663,1 53724U 22107AA  22314.58334491 -.01169143  00000-0 -62223-1 0  9995,2 53724  53.2161 308.8462 0001896  30.6199  21.6457 15.17714684  1307,6890.886,94.879,514.058,511.445,0.0
